OBJECT_NAME,OBJECT_ID,EPOCH,MEAN_MOTION,ECCENTRICITY,INCLINATION,RA_OF_ASC_NODE,ARG_OF_PERICENTER,MEAN_ANOMALY,EPHEMERIS_TYPE,CLASSIFICATION_TYPE,NORAD_CAT_ID,ELEMENT_SET_NO,REV_AT_EPOCH,BSTAR,MEAN_MOTION_DOT,MEAN_MOTION_DDOT
KUZGTU 1 (RS47S),2023-091AV,2026-07-04T15:02:12.204960,15.30286863,.00111861,97.5049,250.2879,42.7073,317.5035,0,U,57217,999,16704,.82758173E-3,.24264E-3,0
SONATE-2,2024-043Q,2026-07-04T09:36:41.096160,15.60080524,.00071042,97.5552,336.8698,140.4883,219.6892,0,U,59112,999,13057,.71675548E-3,.58343E-3,0
MESAT1,2024-125G,2026-07-04T01:26:31.629120,15.65163693,.00108725,97.2260,42.9476,147.3419,212.8516,0,U,60209,999,11220,.84409772E-3,.84122E-3,0
OOV-CUBE (TUBSAT-30),2024-128F,2026-07-04T08:31:35.761728,15.02839523,.00424682,61.9937,165.7051,137.5285,222.9106,0,U,60240,999,10869,.21118858E-3,.2684E-4,0
COLIBRI-S (RS67S),2024-199M,2026-07-04T13:53:46.640256,15.48485076,.00075736,97.2964,59.5973,201.2038,158.8900,0,U,61746,999,14010,.84353738E-3,.44978E-3,0
HORS 3 (RS81S),2024-199U,2026-07-04T14:04:54.513984,15.56260809,.00056425,97.2944,61.7861,191.0469,169.0663,0,U,61753,999,14026,.1080188E-2,.76395E-3,0
HORS 4 (RS82S),2024-199V,2026-07-04T14:53:47.450976,15.61464451,.00057539,97.2886,63.1398,179.8727,180.2534,0,U,61754,999,14036,.12607739E-2,.10891E-2,0
SIT-2086,2024-199AF,2026-07-04T14:04:03.506880,15.54368169,.00069456,97.2900,62.2017,177.6574,182.4714,0,U,61764,999,13713,.11650246E-2,.76917E-3,0
HYPERVIEW 1G (RS66S),2024-199AP,2026-07-04T14:59:18.257568,15.81489487,.00074936,97.2817,66.2875,169.2587,190.8843,0,U,61772,999,13742,.17497637E-2,.360588E-2,0
ALTAIR (RS65S),2024-199AW,2026-07-04T14:57:05.345856,15.37371351,.00110505,97.3002,54.8602,238.1656,121.8514,0,U,61779,999,13979,.43060483E-3,.15736E-3,0
ASRTU-1 (AO-123),2024-199AY,2026-07-04T15:02:17.312928,15.35938377,.00120902,97.2973,54.1406,242.0119,117.9902,0,U,61781,999,13660,.40088677E-3,.13986E-3,0
SAMSAT-IONOSPHERE (RS75S),2024-199BB,2026-07-04T14:08:38.572512,15.59263110,.00078993,97.2910,61.9019,196.7378,163.3619,0,U,61784,999,14027,.12645322E-2,.100413E-2,0
RTU MIREA 1 (RS51S),2024-199BC,2026-07-04T15:17:24.368640,15.63170530,.00079452,97.2898,62.8772,190.2233,169.8866,0,U,61785,999,13719,.13479465E-2,.124714E-2,0
TEVEL2-4,2025-052D,2026-07-04T04:44:32.552736,15.35231929,.00044603,97.3880,81.6219,72.1659,288.0071,0,U,63213,999,7272,.77344373E-3,.26442E-3,0
TEVEL2-5,2025-052E,2026-07-03T23:01:24.056544,15.35036262,.00044711,97.3878,81.3261,74.0605,286.1131,0,U,63214,999,7268,.66991312E-3,.22739E-3,0
TEVEL2-6,2025-052F,2026-07-04T04:01:19.329312,15.35012398,.0004299,97.3882,81.5194,74.6482,285.5237,0,U,63215,999,7271,.73793881E-3,.25044E-3,0
TEVEL2-1,2025-052H,2026-07-02T10:36:17.123040,15.34387675,.000494,97.3860,79.3967,84.7539,275.4267,0,U,63217,999,7243,.64322E-3,.21382E-3,0
TEVEL2-3,2025-052J,2026-07-04T10:58:45.165216,15.34532305,.0004657,97.3857,81.4374,82.5997,277.5775,0,U,63218,999,7274,.8266232E-3,.27649E-3,0
TEVEL2-2,2025-052K,2026-07-04T11:07:41.842272,15.34484342,.00048476,97.3851,81.4223,81.4850,278.6942,0,U,63219,999,7274,.85302465E-3,.28496E-3,0
OTP-2,2025-052AB,2026-07-04T10:17:18.059136,15.24226530,.00083011,97.3846,77.6017,99.9102,260.3073,0,U,63235,999,7249,.44717158E-3,.1085E-3,0
TEVEL2-9,2025-052AD,2026-07-03T14:45:18.109152,15.32416047,.0008273,97.3920,79.9121,87.9946,272.2243,0,U,63237,999,7254,.61259096E-3,.19142E-3,0
TEVEL2-7,2025-052AE,2026-07-04T10:37:25.443840,15.32144794,.00083419,97.3918,80.6472,86.1482,274.0714,0,U,63238,999,7266,.82678858E-3,.25666E-3,0
TEVEL2-8,2025-052AF,2026-07-04T10:49:32.892960,15.32129933,.00084036,97.3916,80.6319,86.5225,273.6978,0,U,63239,999,7266,.82944025E-3,.25737E-3,0
INNOSAT 16 (RS92S7),2025-155C,2026-07-04T09:13:04.562112,15.25646141,.00122263,97.4577,152.4594,120.7442,239.5002,0,U,64878,999,8329,.30637542E-3,.7738E-4,0
GEOSCAN 6 (RS92S6),2025-155D,2026-07-04T09:05:26.354400,15.30486242,.00098736,97.4569,154.0012,112.1719,248.0571,0,U,64879,999,8339,.51889903E-3,.15255E-3,0
GEOSCAN 1 (RS92S1),2025-155E,2026-07-04T08:59:03.884064,15.31118695,.00098249,97.4565,154.1600,112.2327,247.9957,0,U,64880,999,8340,.54294191E-3,.16284E-3,0
239ALFEROV (RS61S),2025-155F,2026-07-04T09:13:08.168448,15.33424929,.00094919,97.4565,154.7903,111.2363,248.9894,0,U,64881,999,8344,.6818067E-3,.22014E-3,0
GEOSCAN 2 (RS92S2),2025-155Q,2026-07-04T08:45:40.265568,15.31376054,.00092414,97.4564,154.3098,101.8993,258.3285,0,U,64890,999,8341,.51142867E-3,.15453E-3,0
GEOSCAN 5 (RS92S5),2025-155R,2026-07-04T08:52:14.285856,15.33737500,.00084609,97.4557,154.9197,115.0255,245.1867,0,U,64891,999,8345,.65716695E-3,.21418E-3,0
GEOSCAN 4 (RS92S4),2025-155S,2026-07-04T08:26:55.854240,15.33898420,.00084698,97.4561,154.9555,115.0385,245.1738,0,U,64892,999,8345,.6461084E-3,.21163E-3,0
